STARLINK-1712           
1 46581U 20070BB  26063.00001157  .00574213  14762-3  14037-2 0  9996
2 46581  53.0299 109.6613 0006690 339.8820 138.9741 15.95580565  5944
STARLINK-1848           
1 46740U 20074B   26063.10621353  .10028560  12371-4  62757-3 0  9992
2 46740  53.0202 279.1593 0006491 257.3061 102.7260 16.41157069296774
STARLINK-1955           
1 47556U 21009J   26063.00001157  .00449152  89310-4  13018-2 0  9995
2 47556  53.0357 354.2507 0003310 124.5284 181.4761 15.92430756  5994
WILDTRACKCUBE-SIMBA     
1 47941U 21022K   26062.89304341  .02336193  24130-5  14226-2 0  9999
2 47941  97.3798 344.7324 0006158 131.0868 229.0953 16.18186347274912
JILIN-1 GAOFEN 3D02     
1 49005U 21061C   26062.96877708  .01484311  16742-2  13472-2 0  9999
2 49005  97.2907 143.5079 0004863 247.8678 112.2092 16.13015311259898
STARLINK-3269           
1 50194U 21125AQ  26062.82777462  .02722530  11758-4  16523-2 0  9995
2 50194  53.1981 160.4573 0010813 338.7036  21.3552 16.17404907237387
LYNK TOWER 1            
1 52162U 22033F   26062.78370861  .00698338  26184-3  78751-3 0  9994
2 52162  97.2539 167.9525 0005891 198.5741 161.5328 16.09327893220295
STARLINK-3767           
1 52376U 22045AX  26063.00001157  .01206559  74838-3  24762-2 0  9991
2 52376  53.2117 201.3962 0000765  87.7778 251.8851 15.98895964  5929
NUSAT-28 (ALICE LEE)    
1 52747U 22057R   26062.95189824  .00559244  13243-3  13697-2 0  9996
2 52747  97.4990 212.2090 0007032 288.8051  71.2462 15.96093712211138
STARLINK-6284           
1 56403U 23061AF  26062.98107343  .04547832  92034-5  73897-3 0  9994
2 56403  42.9901 172.2404 0005264 309.8740  50.1687 16.32520729156548
SHIYAN-25 (SY-25)       
1 57047U 23087A   26062.96665900 -.00031941  23309-5 -58114-4 0  9995
2 57047  96.7160 124.0497 0011973 244.0800 115.9247 16.00933674157977
STARLINK-6151           
1 57118U 23090T   26062.74484266  .01532653  18730-2  10825-2 0  9997
2 57118  42.9694 185.2911 0016580 346.0495  13.9929 16.15362378150928
STARLINK-30210          
1 57292U 23096C   26062.71629556  .00871965  37875-3  13600-2 0  9993
2 57292  42.9635 173.0614 0025313   0.5337 359.5565 16.02582491147558
STARLINK-30232          
1 57303U 23096P   26062.74066020  .00930881  44072-3  14119-2 0  9996
2 57303  42.9709 172.4938 0024613   1.5339 358.5612 16.03092484147540
QIANKUN-1               
1 57422U 23103B   26062.54347757  .00000922  16822-5  16846-5 0  9994
2 57422  96.1902 114.4710 0032520 177.2872 182.8597 16.07670483150326
