[{"OBJECT_NAME":"STARLINK-1712","OBJECT_ID":"2020-070BB","EPOCH":"2026-03-04T00:00:00.999648","MEAN_MOTION":15.95580565,"ECCENTRICITY":0.00066901,"INCLINATION":53.0299,"RA_OF_ASC_NODE":109.6613,"ARG_OF_PERICENTER":339.882,"MEAN_ANOMALY":138.9741,"EPHEMERIS_TYPE":0,"CLASSIFICATION_TYPE":"U","NORAD_CAT_ID":46581,"ELEMENT_SET_NO":999,"REV_AT_EPOCH":594,"BSTAR":0.0014037249,"MEAN_MOTION_DOT":0.00574213,"MEAN_MOTION_DDOT":0.000147618},{"OBJECT_NAME":"STARLINK-1848","OBJECT_ID":"2020-074B","EPOCH":"2026-03-04T02:32:56.848992","MEAN_MOTION":16.41157069,"ECCENTRICITY":0.0006491,"INCLINATION":53.0202,"RA_OF_ASC_NODE":279.1593,"ARG_OF_PERICENTER":257.3061,"MEAN_ANOMALY":102.726,"EPHEMERIS_TYPE":0,"CLASSIFICATION_TYPE":"U","NORAD_CAT_ID":46740,"ELEMENT_SET_NO":999,"REV_AT_EPOCH":29677,"BSTAR":0.00062757,"MEAN_MOTION_DOT":0.1002856,"MEAN_MOTION_DDOT":1.2371e-5},{"OBJECT_NAME":"STARLINK-1955","OBJECT_ID":"2021-009J","EPOCH":"2026-03-04T00:00:00.999648","MEAN_MOTION":15.92430756,"ECCENTRICITY":0.00033107,"INCLINATION":53.0357,"RA_OF_ASC_NODE":354.2507,"ARG_OF_PERICENTER":124.5284,"MEAN_ANOMALY":181.4761,"EPHEMERIS_TYPE":0,"CLASSIFICATION_TYPE":"U","NORAD_CAT_ID":47556,"ELEMENT_SET_NO":999,"REV_AT_EPOCH":599,"BSTAR":0.0013017848,"MEAN_MOTION_DOT":0.00449152,"MEAN_MOTION_DDOT":8.930996e-5},{"OBJECT_NAME":"WILDTRACKCUBE-SIMBA","OBJECT_ID":"2021-022K","EPOCH":"2026-03-03T21:25:58.950624","MEAN_MOTION":16.18186347,"ECCENTRICITY":0.00061585,"INCLINATION":97.3798,"RA_OF_ASC_NODE":344.7324,"ARG_OF_PERICENTER":131.0868,"MEAN_ANOMALY":229.0953,"EPHEMERIS_TYPE":0,"CLASSIFICATION_TYPE":"U","NORAD_CAT_ID":47941,"ELEMENT_SET_NO":999,"REV_AT_EPOCH":27491,"BSTAR":0.001422615,"MEAN_MOTION_DOT":0.02336193,"MEAN_MOTION_DDOT":2.412984e-6},{"OBJECT_NAME":"JILIN-1 GAOFEN 3D02","OBJECT_ID":"2021-061C","EPOCH":"2026-03-03T23:15:02.339712","MEAN_MOTION":16.13015311,"ECCENTRICITY":0.0004863,"INCLINATION":97.2907,"RA_OF_ASC_NODE":143.5079,"ARG_OF_PERICENTER":247.8678,"MEAN_ANOMALY":112.2092,"EPHEMERIS_TYPE":0,"CLASSIFICATION_TYPE":"U","NORAD_CAT_ID":49005,"ELEMENT_SET_NO":999,"REV_AT_EPOCH":25989,"BSTAR":0.0013472008,"MEAN_MOTION_DOT":0.01484311,"MEAN_MOTION_DDOT":0.0016741879},{"OBJECT_NAME":"STARLINK-3269","OBJECT_ID":"2021-125AQ","EPOCH":"2026-03-03T19:51:59.727168","MEAN_MOTION":16.17404907,"ECCENTRICITY":0.00108139,"INCLINATION":53.1981,"RA_OF_ASC_NODE":160.4573,"ARG_OF_PERICENTER":338.7036,"MEAN_ANOMALY":21.3552,"EPHEMERIS_TYPE":0,"CLASSIFICATION_TYPE":"U","NORAD_CAT_ID":50194,"ELEMENT_SET_NO":999,"REV_AT_EPOCH":23738,"BSTAR":0.0016522602,"MEAN_MOTION_DOT":0.0272253,"MEAN_MOTION_DDOT":1.1758422e-5},{"OBJECT_NAME":"LYNK TOWER 1","OBJECT_ID":"2022-033F","EPOCH":"2026-03-03T18:48:32.423904","MEAN_MOTION":16.09327893,"ECCENTRICITY":0.00058914,"INCLINATION":97.2539,"RA_OF_ASC_NODE":167.9525,"ARG_OF_PERICENTER":198.5741,"MEAN_ANOMALY":161.5328,"EPHEMERIS_TYPE":0,"CLASSIFICATION_TYPE":"U","NORAD_CAT_ID":52162,"ELEMENT_SET_NO":999,"REV_AT_EPOCH":22029,"BSTAR":0.00078750736,"MEAN_MOTION_DOT":0.00698338,"MEAN_MOTION_DDOT":0.00026184097},{"OBJECT_NAME":"STARLINK-3767","OBJECT_ID":"2022-045AX","EPOCH":"2026-03-04T00:00:00.999648","MEAN_MOTION":15.98895964,"ECCENTRICITY":7.65e-5,"INCLINATION":53.2117,"RA_OF_ASC_NODE":201.3962,"ARG_OF_PERICENTER":87.7778,"MEAN_ANOMALY":251.8851,"EPHEMERIS_TYPE":0,"CLASSIFICATION_TYPE":"U","NORAD_CAT_ID":52376,"ELEMENT_SET_NO":999,"REV_AT_EPOCH":592,"BSTAR":0.0024762192,"MEAN_MOTION_DOT":0.01206559,"MEAN_MOTION_DDOT":0.00074838019},{"OBJECT_NAME":"NUSAT-28 (ALICE LEE)","OBJECT_ID":"2022-057R","EPOCH":"2026-03-03T22:50:44.007936","MEAN_MOTION":15.96093712,"ECCENTRICITY":0.00070323,"INCLINATION":97.499,"RA_OF_ASC_NODE":212.209,"ARG_OF_PERICENTER":288.8051,"MEAN_ANOMALY":71.2462,"EPHEMERIS_TYPE":0,"CLASSIFICATION_TYPE":"U","NORAD_CAT_ID":52747,"ELEMENT_SET_NO":999,"REV_AT_EPOCH":21113,"BSTAR":0.0013697019,"MEAN_MOTION_DOT":0.00559244,"MEAN_MOTION_DDOT":0.00013242698},{"OBJECT_NAME":"STARLINK-6284","OBJECT_ID":"2023-061AF","EPOCH":"2026-03-03T23:32:44.744352","MEAN_MOTION":16.32520729,"ECCENTRICITY":0.0005264,"INCLINATION":42.9901,"RA_OF_ASC_NODE":172.2404,"ARG_OF_PERICENTER":309.874,"MEAN_ANOMALY":50.1687,"EPHEMERIS_TYPE":0,"CLASSIFICATION_TYPE":"U","NORAD_CAT_ID":56403,"ELEMENT_SET_NO":999,"REV_AT_EPOCH":15654,"BSTAR":0.00073897,"MEAN_MOTION_DOT":0.04547832,"MEAN_MOTION_DDOT":9.2034e-6},{"OBJECT_NAME":"SHIYAN-25 (SY-25)","OBJECT_ID":"2023-087A","EPOCH":"2026-03-03T23:11:59.337600","MEAN_MOTION":16.00933674,"ECCENTRICITY":0.00119734,"INCLINATION":96.716,"RA_OF_ASC_NODE":124.0497,"ARG_OF_PERICENTER":244.08,"MEAN_ANOMALY":115.9247,"EPHEMERIS_TYPE":0,"CLASSIFICATION_TYPE":"U","NORAD_CAT_ID":57047,"ELEMENT_SET_NO":999,"REV_AT_EPOCH":15797,"BSTAR":-5.8114439e-5,"MEAN_MOTION_DOT":-0.00031941,"MEAN_MOTION_DDOT":2.330946e-6},{"OBJECT_NAME":"STARLINK-6151","OBJECT_ID":"2023-090T","EPOCH":"2026-03-03T17:52:34.405824","MEAN_MOTION":16.15362378,"ECCENTRICITY":0.00165808,"INCLINATION":42.9694,"RA_OF_ASC_NODE":185.2911,"ARG_OF_PERICENTER":346.0495,"MEAN_ANOMALY":13.9929,"EPHEMERIS_TYPE":0,"CLASSIFICATION_TYPE":"U","NORAD_CAT_ID":57118,"ELEMENT_SET_NO":999,"REV_AT_EPOCH":15092,"BSTAR":0.0010824777,"MEAN_MOTION_DOT":0.01532653,"MEAN_MOTION_DDOT":0.001873042},{"OBJECT_NAME":"STARLINK-30210","OBJECT_ID":"2023-096C","EPOCH":"2026-03-03T17:11:27.936384","MEAN_MOTION":16.02582491,"ECCENTRICITY":0.00253133,"INCLINATION":42.9635,"RA_OF_ASC_NODE":173.0614,"ARG_OF_PERICENTER":0.5337,"MEAN_ANOMALY":359.5565,"EPHEMERIS_TYPE":0,"CLASSIFICATION_TYPE":"U","NORAD_CAT_ID":57292,"ELEMENT_SET_NO":999,"REV_AT_EPOCH":14755,"BSTAR":0.0013600001,"MEAN_MOTION_DOT":0.00871965,"MEAN_MOTION_DDOT":0.00037874862},{"OBJECT_NAME":"STARLINK-30232","OBJECT_ID":"2023-096P","EPOCH":"2026-03-03T17:46:33.041280","MEAN_MOTION":16.03092484,"ECCENTRICITY":0.00246138,"INCLINATION":42.9709,"RA_OF_ASC_NODE":172.4938,"ARG_OF_PERICENTER":1.5339,"MEAN_ANOMALY":358.5612,"EPHEMERIS_TYPE":0,"CLASSIFICATION_TYPE":"U","NORAD_CAT_ID":57303,"ELEMENT_SET_NO":999,"REV_AT_EPOCH":14754,"BSTAR":0.0014118894,"MEAN_MOTION_DOT":0.00930881,"MEAN_MOTION_DDOT":0.00044071928},{"OBJECT_NAME":"QIANKUN-1","OBJECT_ID":"2023-103B","EPOCH":"2026-03-03T13:02:36.462048","MEAN_MOTION":16.07670483,"ECCENTRICITY":0.003252,"INCLINATION":96.1902,"RA_OF_ASC_NODE":114.471,"ARG_OF_PERICENTER":177.2872,"MEAN_ANOMALY":182.8597,"EPHEMERIS_TYPE":0,"CLASSIFICATION_TYPE":"U","NORAD_CAT_ID":57422,"ELEMENT_SET_NO":999,"REV_AT_EPOCH":15032,"BSTAR":1.6846e-6,"MEAN_MOTION_DOT":9.22e-6,"MEAN_MOTION_DDOT":1.6822e-6}]
